NORAD_CAT_ID,OBJECT_NAME,OBJECT_TYPE,EPOCH,MEAN_MOTION,ECCENTRICITY,INCLINATION,RA_OF_ASC_NODE,ARG_OF_PERICENTER,MEAN_ANOMALY,BSTAR,MEAN_MOTION_DOT,MEAN_MOTION_DDOT,TLE_LINE0,TLE_LINE1,TLE_LINE2,SEMIMAJOR_AXIS,PERIOD,APOGEE,PERIGEE,DECAYED
51982.0,STARLINK-3650,PAYLOAD,2022-06-24 22:00:01,15.08830026,0.0001701,53.215,356.4394,57.4427,312.889,0.0020811,0.00032979,0.0,0 STARLINK-3650,1 51982U 22025AC  22175.91668981  .00032979  00000-0  20811-2 0  9995,2 51982  53.2150 356.4394 0001701  57.4427 312.8890 15.08830026  1303,6917.911,95.438,540.953,538.599,0.0
51982.0,STARLINK-3650,PAYLOAD,2022-06-25 12:00:00,15.08827572,0.0001484,53.2152,353.8186,65.3651,235.1942,0.0014595,0.00023008,0.0,0 STARLINK-3650,1 51982U 22025AC  22176.50001157  .00023008  00000-0  14595-2 0  9992,2 51982  53.2152 353.8186 0001484  65.3651 235.1942 15.08827572 17876,6917.918000000002,95.438,540.81,538.757,0.0
51982.0,STARLINK-3650,PAYLOAD,2022-06-25 14:00:01,15.08846639,0.0001501,53.2152,353.445,63.3469,330.1038,-0.00082277,-0.00013361,0.0,0 STARLINK-3650,1 51982U 22025AC  22176.58334491 -.00013361  00000-0 -82277-3 0  9996,2 51982  53.2152 353.4450 0001501  63.3469 330.1038 15.08846639  1309,6917.86,95.437,540.763,538.687,0.0
51982.0,STARLINK-3650,PAYLOAD,2022-06-25 22:00:00,15.08820255,0.0001609,53.215,351.95,55.7666,349.2919,0.0030863,0.00049147,0.0,0 STARLINK-3650,1 51982U 22025AC  22176.91667824  .00049147  00000-0  30863-2 0  9994,2 51982  53.2150 351.9500 0001609  55.7666 349.2919 15.08820255  1304,6917.941,95.439,540.919,538.693,0.0
51982.0,STARLINK-3650,PAYLOAD,2022-06-26 12:00:00,15.08861918,0.000154,53.2164,349.3282,65.4898,269.8393,-0.005734,-0.00090455,0.0,0 STARLINK-3650,1 51982U 22025AC  22177.50001157 -.00090455  00000-0 -57340-2 0  9990,2 51982  53.2164 349.3282 0001540  65.4898 269.8393 15.08861918 18027,6917.813,95.436,540.744,538.613,0.0
51982.0,STARLINK-3650,PAYLOAD,2022-06-26 14:00:01,15.08844839,0.0001579,53.2167,348.9545,63.5796,4.7132,-0.0045606,-0.00072153,0.0,0 STARLINK-3650,1 51982U 22025AC  22177.58335648 -.00072153  00000-0 -45606-2 0  9990,2 51982  53.2167 348.9545 0001579  63.5796   4.7132 15.08844839  1308,6917.866,95.437,540.823,538.638,0.0
51982.0,STARLINK-3650,PAYLOAD,2022-06-26 20:00:01,15.08828632,0.0001688,53.215,347.8345,59.6059,287.3279,0.0015145999999999,0.00023892,0.0,0 STARLINK-3650,1 51982U 22025AC  22177.83334491  .00023892  00000-0  15146-2 0  9993,2 51982  53.2150 347.8345 0001688  59.6059 287.3279 15.08828632 18071,6917.915,95.438,540.948,538.612,0.0
51982.0,STARLINK-3650,PAYLOAD,2022-06-26 22:00:00,15.08820696,0.0001644,53.2148,347.4605,57.7887,22.0458,0.0029505,0.00046958,0.0,0 STARLINK-3650,1 51982U 22025AC  22177.91667824  .00046958  00000-0  29505-2 0  9993,2 51982  53.2148 347.4605 0001644  57.7887  22.0458 15.08820696  1306,6917.939,95.439,540.942,538.6669999999998,0.0
51982.0,STARLINK-3650,PAYLOAD,2022-06-27 12:00:00,15.08825826,0.0001419,53.215,344.8399,67.0275,303.0881,0.00050439,7.745e-05,0.0,0 STARLINK-3650,1 51982U 22025AC  22178.50001157  .00007745  00000-0  50439-3 0  9992,2 51982  53.2150 344.8399 0001419  67.0275 303.0881 15.08825826 18170,6917.924,95.438,540.77,538.807,0.0
51982.0,STARLINK-3650,PAYLOAD,2022-06-27 14:00:01,15.08839853,0.0001448,53.2149,344.4663,64.5848,38.4221,-0.0014825,-0.00023804,0.0,0 STARLINK-3650,1 51982U 22025AC  22178.58334491 -.00023804  00000-0 -14825-2 0  9994,2 51982  53.2149 344.4663 0001448  64.5848  38.4221 15.08839853  1307,6917.880999999999,95.438,540.748,538.744,0.0
51982.0,STARLINK-3650,PAYLOAD,2022-06-27 22:00:00,15.08808397,0.0001526,53.2144,342.971,56.6007,57.9994,0.0031099,0.00049511,0.0,0 STARLINK-3650,1 51982U 22025AC  22178.91667824  .00049511  00000-0  31099-2 0  9993,2 51982  53.2144 342.9710 0001526  56.6007  57.9994 15.08808397  1306,6917.977,95.44,540.898,538.786,0.0
51982.0,STARLINK-3650,PAYLOAD,2022-06-28 14:00:01,15.08851577,0.000146,53.2145,339.977,65.7703,71.9836,-0.0017714,-0.00028378,0.0,0 STARLINK-3650,1 51982U 22025AC  22179.58334491 -.00028378  00000-0 -17714-2 0  9996,2 51982  53.2145 339.9770 0001460  65.7703  71.9836 15.08851577 18341,6917.845,95.437,540.72,538.7,0.0
51982.0,STARLINK-3650,PAYLOAD,2022-06-28 22:00:00,15.08821039,0.000153,53.2141,338.4816,57.4498,91.9088,0.0027565,0.00043832,0.0,0 STARLINK-3650,1 51982U 22025AC  22179.91667824  .00043832  00000-0  27565-2 0  9997,2 51982  53.2141 338.4816 0001530  57.4498  91.9088 15.08821039  1308,6917.938,95.439,540.862,538.745,0.0
51982.0,STARLINK-3650,PAYLOAD,2022-06-29 14:00:01,15.08869819,0.0001468,53.2144,335.4877,64.7392,107.8055,-0.0027479,-0.00043791,0.0,0 STARLINK-3650,1 51982U 22025AC  22180.58334491 -.00043791  00000-0 -27479-2 0  9993,2 51982  53.2144 335.4877 0001468  64.7392 107.8055 15.08869819  1308,6917.7890000000025,95.436,540.67,538.639,0.0
51982.0,STARLINK-3650,PAYLOAD,2022-06-29 22:00:00,15.08821139,0.0001475,53.2141,333.9921,55.1819,128.9814,0.0012762,0.00020071,0.0,0 STARLINK-3650,1 51982U 22025AC  22180.91667824  .00020071  00000-0  12762-2 0  9992,2 51982  53.2141 333.9921 0001475  55.1819 128.9814 15.08821139 18548,6917.938,95.439,540.823,538.783,0.0
51982.0,STARLINK-3650,PAYLOAD,2022-06-30 14:00:01,15.08847149,0.0001435,53.2145,330.9984,61.5458,145.7776,-0.0015159,-0.00024337,0.0,0 STARLINK-3650,1 51982U 22025AC  22181.58334491 -.00024337  00000-0 -15159-2 0  9991,2 51982  53.2145 330.9984 0001435  61.5458 145.7776 15.08847149  1303,6917.859,95.437,540.716,538.731,0.0
51982.0,STARLINK-3650,PAYLOAD,2022-06-30 20:00:01,15.08813605,0.0001506999999999,53.2147,329.8771,54.9635,71.0623,0.0029066,0.00046241,0.0,0 STARLINK-3650,1 51982U 22025AC  22181.83334491  .00046241  00000-0  29066-2 0  9997,2 51982  53.2147 329.8771 0001507  54.9635  71.0623 15.08813605 18680,6917.9609999999975,95.439,540.869,538.784,0.0
51982.0,STARLINK-3650,PAYLOAD,2022-06-30 22:00:00,15.08826546,0.0001506,53.2144,329.5028,54.273,164.6441,0.0017803,0.00028149,0.0,0 STARLINK-3650,1 51982U 22025AC  22181.91667824  .00028149  00000-0  17803-2 0  9998,2 51982  53.2144 329.5028 0001506  54.2730 164.6441 15.08826546  1303,6917.922,95.438,540.828,538.745,0.0
51982.0,STARLINK-3650,PAYLOAD,2022-07-01 14:00:01,15.08858529,0.00015,53.2149,326.5092,60.1468,181.9584,-0.0014222,-0.00022862,0.0,0 STARLINK-3650,1 51982U 22025AC  22182.58334491 -.00022862  00000-0 -14222-2 0  9993,2 51982  53.2149 326.5092 0001500  60.1468 181.9584 15.08858529 18791,6917.824000000001,95.436,540.726,538.651,0.0
51982.0,STARLINK-3650,PAYLOAD,2022-07-01 22:00:00,15.08840462,0.0001428,53.2148,325.0134,54.3718,199.3807,-0.0006467,-0.00010566,0.0,0 STARLINK-3650,1 51982U 22025AC  22182.91667824 -.00010566  00000-0 -64670-3 0  9990,2 51982  53.2148 325.0134 0001428  54.3718 199.3807 15.08840462  1300,6917.879,95.438,540.732,538.756,0.0
51982.0,STARLINK-3650,PAYLOAD,2022-07-02 04:00:00,15.08824666,0.0001264999999999,53.2152,323.8896,59.8164,112.6359,0.00075021,0.00011667,0.0,0 STARLINK-3650,1 51982U 22025AC  22183.16667824  .00011667  00000-0  75021-3 0  9991,2 51982  53.2152 323.8896 0001265  59.8164 112.6359 15.08824666 18889,6917.927,95.439,540.6669999999998,538.9169999999998,0.0
51982.0,STARLINK-3650,PAYLOAD,2022-07-02 14:00:01,15.08851024,0.0001375,53.2153,322.02,58.7429,218.1907,-0.0012607,-0.00020302,0.0,0 STARLINK-3650,1 51982U 22025AC  22183.58334491 -.00020302  00000-0 -12607-2 0  9996,2 51982  53.2153 322.0200 0001375  58.7429 218.1907 15.08851024  1302,6917.847,95.437,540.663,538.76,0.0
51982.0,STARLINK-3650,PAYLOAD,2022-07-02 22:00:00,15.08864118,0.0001429,53.215,320.5242,53.2582,235.2829,-0.0012039,-0.00019409,0.0,0 STARLINK-3650,1 51982U 22025AC  22183.91667824 -.00019409  00000-0 -12039-2 0  9997,2 51982  53.2150 320.5242 0001429  53.2582 235.2829 15.08864118  1309,6917.807,95.436,540.66,538.683,0.0
51982.0,STARLINK-3650,PAYLOAD,2022-07-03 06:00:00,15.08814379,0.0001345,53.2153,319.026,63.1056,237.0684,0.0032804,0.0005227,0.0,0 STARLINK-3650,1 51982U 22025AC  22184.25001157  .00052270  00000-0  32804-2 0  9999,2 51982  53.2153 319.0260 0001345  63.1056 237.0684 15.08814379 19041,6917.959,95.439,540.754,538.893,0.0
51982.0,STARLINK-3650,PAYLOAD,2022-07-03 14:00:01,15.08864034,0.0001403,53.2154,317.531,59.1099,252.6411,-0.0043804,-0.00069376,0.0,0 STARLINK-3650,1 51982U 22025AC  22184.58334491 -.00069376  00000-0 -43804-2 0  9994,2 51982  53.2154 317.5310 0001403  59.1099 252.6411 15.08864034  1302,6917.807,95.436,540.6419999999998,538.701,0.0
51982.0,STARLINK-3650,PAYLOAD,2022-07-03 22:00:00,15.08831668,0.0001402,53.2149,316.0349,53.6873,269.6481,-0.0029945,-0.0004762,0.0,0 STARLINK-3650,1 51982U 22025AC  22184.91667824 -.00047620  00000-0 -29945-2 0  9998,2 51982  53.2149 316.0349 0001402  53.6873 269.6481 15.08831668  1302,6917.906,95.438,540.741,538.8009999999998,0.0
51982.0,STARLINK-3650,PAYLOAD,2022-07-04 14:00:01,15.08795073,0.0001476,53.2151,313.0422,61.2954,285.1459,0.00116,0.00018199,0.0,0 STARLINK-3650,1 51982U 22025AC  22185.58334491  .00018199  00000-0  11600-2 0  9999,2 51982  53.2151 313.0422 0001476  61.2954 285.1459 15.08795073  1307,6918.018,95.44,540.904,538.862,0.0
51982.0,STARLINK-3650,PAYLOAD,2022-07-04 22:00:00,15.08841542,0.0001524,53.2145,311.5459,58.3004,299.6895,-0.00052321,-8.606e-05,0.0,0 STARLINK-3650,1 51982U 22025AC  22185.91667824 -.00008606  00000-0 -52321-3 0  9995,2 51982  53.2145 311.5459 0001524  58.3004 299.6895 15.08841542 19294,6917.876,95.437,540.795,538.686,0.0
51982.0,STARLINK-3650,PAYLOAD,2022-07-05 14:00:01,15.08851431,0.0001517,53.2144,308.5533,62.7984,318.376,-0.0011719,-0.00018896,0.0,0 STARLINK-3650,1 51982U 22025AC  22186.58334491 -.00018896  00000-0 -11719-2 0  9997,2 51982  53.2144 308.5533 0001517  62.7984 318.3760 15.08851431  1301,6917.845,95.437,540.76,538.661,0.0
